start=new Date('2022-04-06T00:00:00.000Z').valueOf();
sats=[{"TLE_LINE2":"2 50818  53.2173 125.9219 0001845  38.2695  97.9212 15.20375359  3660","MEAN_MOTION_DDOT":"0.0000000000000","TLE_LINE1":"1 50818U 22001R   22095.91667824 -.00721761  00000-0 -35116-1 0  9991","INCLINATION":"53.2173","RA_OF_ASC_NODE":"125.9219","EPOCH":"2022-04-05T22:00:00.999936","NORAD_CAT_ID":"50818","OBJECT_TYPE":"PAYLOAD","PERIAPSIS":"503.440","LAUNCH_DATE":"2022-01-06","APOAPSIS":"505.979","FILE":"3389912","MEAN_ELEMENT_THEORY":"SGP4","COUNTRY_CODE":"US","REF_FRAME":"TEME","PERIOD":"94.713","MEAN_ANOMALY":"97.9212","ARG_OF_PERICENTER":"38.2695","MEAN_MOTION":"15.20375359","GP_ID":"200546574","OBJECT_NAME":"STARLINK-3336","DECAY_DATE":null,"ECCENTRICITY":"0.00018450","OBJECT_ID":"2022-001R","SITE":"AFETR","SEMIMAJOR_AXIS":"6882.845","CLASSIFICATION_TYPE":"U","REV_AT_EPOCH":"366","EPHEMERIS_TYPE":"0","MEAN_MOTION_DOT":"-0.00721761","RCS_SIZE":"LARGE","TIME_SYSTEM":"UTC","BSTAR":"-0.03511600000000","CENTER_NAME":"EARTH","ELEMENT_SET_NO":"999"},{"NORAD_CAT_ID":"50819","OBJECT_TYPE":"PAYLOAD","PERIAPSIS":"497.382","LAUNCH_DATE":"2022-01-06","APOAPSIS":"499.254","MEAN_ELEMENT_THEORY":"SGP4","FILE":"3389912","COUNTRY_CODE":"US","TLE_LINE2":"2 50819  53.2174 125.9241 0001361  51.6856 341.6318 15.22495546  3656","TLE_LINE1":"1 50819U 22001S   22095.91667824 -.00720612  00000-0 -32932-1 0  9999","MEAN_MOTION_DDOT":"0.0000000000000","INCLINATION":"53.2174","RA_OF_ASC_NODE":"125.9241","EPOCH":"2022-04-05T22:00:00.999936","REV_AT_EPOCH":"365","EPHEMERIS_TYPE":"0","CLASSIFICATION_TYPE":"U","MEAN_MOTION_DOT":"-0.00720612","TIME_SYSTEM":"UTC","RCS_SIZE":"LARGE","BSTAR":"-0.03293200000000","ELEMENT_SET_NO":"999","CENTER_NAME":"EARTH","REF_FRAME":"TEME","PERIOD":"94.582","ARG_OF_PERICENTER":"51.6856","MEAN_ANOMALY":"341.6318","MEAN_MOTION":"15.22495546","GP_ID":"200544823","DECAY_DATE":null,"OBJECT_NAME":"STARLINK-3327","ECCENTRICITY":"0.00013610","SITE":"AFETR","SEMIMAJOR_AXIS":"6876.453","OBJECT_ID":"2022-001S"},{"LAUNCH_DATE":"2022-01-06","PERIAPSIS":"502.368","NORAD_CAT_ID":"50820","OBJECT_TYPE":"PAYLOAD","FILE":"3389912","MEAN_ELEMENT_THEORY":"SGP4","COUNTRY_CODE":"US","APOAPSIS":"504.737","MEAN_MOTION_DDOT":"0.0000000000000","TLE_LINE2":"2 50820  53.2172 125.9230 0001721  45.2139 140.3928 15.20758765  3673","TLE_LINE1":"1 50820U 22001T   22095.91667824 -.00721460  00000-0 -34708-1 0  9996","INCLINATION":"53.2172","RA_OF_ASC_NODE":"125.9230","EPOCH":"2022-04-05T22:00:00.999936","MEAN_MOTION_DOT":"-0.00721460","TIME_SYSTEM":"UTC","RCS_SIZE":"LARGE","REV_AT_EPOCH":"367","EPHEMERIS_TYPE":"0","CLASSIFICATION_TYPE":"U","BSTAR":"-0.03470800000000","ELEMENT_SET_NO":"999","CENTER_NAME":"EARTH","MEAN_MOTION":"15.20758765","GP_ID":"200545073","REF_FRAME":"TEME","PERIOD":"94.690","MEAN_ANOMALY":"140.3928","ARG_OF_PERICENTER":"45.2139","ECCENTRICITY":"0.00017210","SEMIMAJOR_AXIS":"6881.688","SITE":"AFETR","OBJECT_ID":"2022-001T","DECAY_DATE":null,"OBJECT_NAME":"STARLINK-3339"},{"FILE":"3389912","MEAN_ELEMENT_THEORY":"SGP4","COUNTRY_CODE":"US","APOAPSIS":"503.237","PERIAPSIS":"500.788","LAUNCH_DATE":"2022-01-06","NORAD_CAT_ID":"50821","OBJECT_TYPE":"PAYLOAD","RA_OF_ASC_NODE":"125.9234","EPOCH":"2022-04-05T22:00:00.999936","TLE_LINE1":"1 50821U 22001U   22095.91667824 -.00720406  00000-0 -34136-1 0  9991","TLE_LINE2":"2 50821  53.2174 125.9234 0001780  41.3493 209.6081 15.21269540  3673","MEAN_MOTION_DDOT":"0.0000000000000","INCLINATION":"53.2174","BSTAR":"-0.03413600000000","ELEMENT_SET_NO":"999","CENTER_NAME":"EARTH","MEAN_MOTION_DOT":"-0.00720406","TIME_SYSTEM":"UTC","RCS_SIZE":"LARGE","EPHEMERIS_TYPE":"0","REV_AT_EPOCH":"367","CLASSIFICATION_TYPE":"U","ECCENTRICITY":"0.00017800","SEMIMAJOR_AXIS":"6880.147","SITE":"AFETR","OBJECT_ID":"2022-001U","DECAY_DATE":null,"OBJECT_NAME":"STARLINK-3346","MEAN_MOTION":"15.21269540","GP_ID":"200546324","REF_FRAME":"TEME","ARG_OF_PERICENTER":"41.3493","PERIOD":"94.658","MEAN_ANOMALY":"209.6081"},{"FILE":"3389912","MEAN_ELEMENT_THEORY":"SGP4","COUNTRY_CODE":"US","APOAPSIS":"503.987","LAUNCH_DATE":"2022-01-06","PERIAPSIS":"501.578","NORAD_CAT_ID":"50822","OBJECT_TYPE":"PAYLOAD","RA_OF_ASC_NODE":"125.9233","EPOCH":"2022-04-05T22:00:00.999936","MEAN_MOTION_DDOT":"0.0000000000000","TLE_LINE2":"2 50822  53.2173 125.9233 0001750  44.8697 173.4891 15.21014128  3670","TLE_LINE1":"1 50822U 22001V   22095.91667824 -.00720834  00000-0 -34416-1 0  9998","INCLINATION":"53.2173","BSTAR":"-0.03441600000000","ELEMENT_SET_NO":"999","CENTER_NAME":"EARTH","MEAN_MOTION_DOT":"-0.00720834","TIME_SYSTEM":"UTC","RCS_SIZE":"LARGE","EPHEMERIS_TYPE":"0","REV_AT_EPOCH":"367","CLASSIFICATION_TYPE":"U","ECCENTRICITY":"0.00017500","SEMIMAJOR_AXIS":"6880.917","SITE":"AFETR","OBJECT_ID":"2022-001V","DECAY_DATE":null,"OBJECT_NAME":"STARLINK-3343","MEAN_MOTION":"15.21014128","GP_ID":"200546075","REF_FRAME":"TEME","PERIOD":"94.674","MEAN_ANOMALY":"173.4891","ARG_OF_PERICENTER":"44.8697"},{"NORAD_CAT_ID":"50823","OBJECT_TYPE":"PAYLOAD","LAUNCH_DATE":"2022-01-06","PERIAPSIS":"497.982","APOAPSIS":"500.195","MEAN_ELEMENT_THEORY":"SGP4","FILE":"3389912","COUNTRY_CODE":"US","MEAN_MOTION_DDOT":"0.0000000000000","TLE_LINE2":"2 50823  53.2174 125.9255 0001609  39.9018 321.5540 15.22239725  3659","TLE_LINE1":"1 50823U 22001W   22095.91667824 -.00720214  00000-0 -33162-1 0  9998","INCLINATION":"53.2174","RA_OF_ASC_NODE":"125.9255","EPOCH":"2022-04-05T22:00:00.999936","CLASSIFICATION_TYPE":"U","REV_AT_EPOCH":"365","EPHEMERIS_TYPE":"0","MEAN_MOTION_DOT":"-0.00720214","RCS_SIZE":"LARGE","TIME_SYSTEM":"UTC","BSTAR":"-0.03316200000000","CENTER_NAME":"EARTH","ELEMENT_SET_NO":"999","REF_FRAME":"TEME","ARG_OF_PERICENTER":"39.9018","PERIOD":"94.597","MEAN_ANOMALY":"321.5540","MEAN_MOTION":"15.22239725","GP_ID":"200545323","OBJECT_NAME":"STARLINK-3334","DECAY_DATE":null,"ECCENTRICITY":"0.00016090","OBJECT_ID":"2022-001W","SEMIMAJOR_AXIS":"6877.224","SITE":"AFETR"},{"RA_OF_ASC_NODE":"125.9234","EPOCH":"2022-04-05T22:00:00.999936","TLE_LINE1":"1 50824U 22001X   22095.91667824 -.00720686  00000-0 -34279-1 0  9992","TLE_LINE2":"2 50824  53.2173 125.9234 0001779  42.4621 192.2152 15.21141873  3672","MEAN_MOTION_DDOT":"0.0000000000000","INCLINATION":"53.2173","APOAPSIS":"503.621","MEAN_ELEMENT_THEORY":"SGP4","FILE":"3389912","COUNTRY_CODE":"US","NORAD_CAT_ID":"50824","OBJECT_TYPE":"PAYLOAD","PERIAPSIS":"501.173","LAUNCH_DATE":"2022-01-06","OBJECT_NAME":"STARLINK-3340","DECAY_DATE":null,"ECCENTRICITY":"0.00017790","OBJECT_ID":"2022-001X","SITE":"AFETR","SEMIMAJOR_AXIS":"6880.532","REF_FRAME":"TEME","MEAN_ANOMALY":"192.2152","PERIOD":"94.666","ARG_OF_PERICENTER":"42.4621","MEAN_MOTION":"15.21141873","GP_ID":"200545573","BSTAR":"-0.03427900000000","CENTER_NAME":"EARTH","ELEMENT_SET_NO":"999","CLASSIFICATION_TYPE":"U","REV_AT_EPOCH":"367","EPHEMERIS_TYPE":"0","MEAN_MOTION_DOT":"-0.00720686","RCS_SIZE":"LARGE","TIME_SYSTEM":"UTC"},{"APOAPSIS":"504.338","COUNTRY_CODE":"US","MEAN_ELEMENT_THEORY":"SGP4","FILE":"3389912","OBJECT_TYPE":"PAYLOAD","NORAD_CAT_ID":"50825","PERIAPSIS":"501.997","LAUNCH_DATE":"2022-01-06","EPOCH":"2022-04-05T22:00:00.999936","RA_OF_ASC_NODE":"125.9232","INCLINATION":"53.2172","TLE_LINE1":"1 50825U 22001Y   22095.91667824 -.00721168  00000-0 -34563-1 0  9995","TLE_LINE2":"2 50825  53.2172 125.9232 0001701  46.9199 155.0821 15.20886453  3662","MEAN_MOTION_DDOT":"0.0000000000000","ELEMENT_SET_NO":"999","CENTER_NAME":"EARTH","BSTAR":"-0.03456300000000","EPHEMERIS_TYPE":"0","REV_AT_EPOCH":"366","CLASSIFICATION_TYPE":"U","TIME_SYSTEM":"UTC","RCS_SIZE":"LARGE","MEAN_MOTION_DOT":"-0.00721168","DECAY_DATE":null,"OBJECT_NAME":"STARLINK-3332","SEMIMAJOR_AXIS":"6881.302","SITE":"AFETR","OBJECT_ID":"2022-001Y","ECCENTRICITY":"0.00017010","PERIOD":"94.682","MEAN_ANOMALY":"155.0821","ARG_OF_PERICENTER":"46.9199","REF_FRAME":"TEME","GP_ID":"200545825","MEAN_MOTION":"15.20886453"},{"NORAD_CAT_ID":"50826","OBJECT_TYPE":"PAYLOAD","LAUNCH_DATE":"2022-01-06","PERIAPSIS":"499.782","APOAPSIS":"501.933","MEAN_ELEMENT_THEORY":"SGP4","FILE":"3389912","COUNTRY_CODE":"US","TLE_LINE1":"1 50826U 22001Z   22095.91667824 -.00719801  00000-0 -33723-1 0  9994","TLE_LINE2":"2 50826  53.2174 125.9229 0001564  46.8095 252.7576 15.21652607  3667","MEAN_MOTION_DDOT":"0.0000000000000","INCLINATION":"53.2174","RA_OF_ASC_NODE":"125.9229","EPOCH":"2022-04-05T22:00:00.999936","EPHEMERIS_TYPE":"0","REV_AT_EPOCH":"366","CLASSIFICATION_TYPE":"U","MEAN_MOTION_DOT":"-0.00719801","TIME_SYSTEM":"UTC","RCS_SIZE":"LARGE","BSTAR":"-0.03372300000000","ELEMENT_SET_NO":"999","CENTER_NAME":"EARTH","REF_FRAME":"TEME","PERIOD":"94.634","MEAN_ANOMALY":"252.7576","ARG_OF_PERICENTER":"46.8095","MEAN_MOTION":"15.21652607","GP_ID":"200546575","DECAY_DATE":null,"OBJECT_NAME":"STARLINK-3337","ECCENTRICITY":"0.00015640","SITE":"AFETR","SEMIMAJOR_AXIS":"6878.992","OBJECT_ID":"2022-001Z"},{"LAUNCH_DATE":"2022-01-06","PERIAPSIS":"503.123","NORAD_CAT_ID":"50827","OBJECT_TYPE":"PAYLOAD","MEAN_ELEMENT_THEORY":"SGP4","FILE":"3389912","COUNTRY_CODE":"US","APOAPSIS":"505.525","TLE_LINE1":"1 50827U 22001AA  22095.91667824 -.00721740  00000-0 -34984-1 0  9990","TLE_LINE2":"2 50827  53.2172 125.9224 0001745  42.4652 110.2359 15.20503204  3667","MEAN_MOTION_DDOT":"0.0000000000000","INCLINATION":"53.2172","RA_OF_ASC_NODE":"125.9224","EPOCH":"2022-04-05T22:00:00.999936","MEAN_MOTION_DOT":"-0.00721740","TIME_SYSTEM":"UTC","RCS_SIZE":"LARGE","REV_AT_EPOCH":"366","EPHEMERIS_TYPE":"0","CLASSIFICATION_TYPE":"U","BSTAR":"-0.03498400000000","ELEMENT_SET_NO":"999","CENTER_NAME":"EARTH","MEAN_MOTION":"15.20503204","GP_ID":"200544824","REF_FRAME":"TEME","MEAN_ANOMALY":"110.2359","PERIOD":"94.705","ARG_OF_PERICENTER":"42.4652","ECCENTRICITY":"0.00017450","SEMIMAJOR_AXIS":"6882.459","SITE":"AFETR","OBJECT_ID":"2022-001AA","DECAY_DATE":null,"OBJECT_NAME":"STARLINK-3329"}];
